[{"OBJECT_NAME":"STARLINK-3525","OBJECT_ID":"2022-016V","EPOCH":"2026-03-09T22:28:28.708032","MEAN_MOTION":15.08831494,"ECCENTRICITY":0.00013765,"INCLINATION":53.2169,"RA_OF_ASC_NODE":318.025,"ARG_OF_PERICENTER":84.0721,"MEAN_ANOMALY":276.0428,"EPHEMERIS_TYPE":0,"CLASSIFICATION_TYPE":"U","NORAD_CAT_ID":51733,"ELEMENT_SET_NO":999,"REV_AT_EPOCH":22360,"BSTAR":-0.00016468254,"MEAN_MOTION_DOT":-2.907e-5,"MEAN_MOTION_DDOT":0},{"OBJECT_NAME":"OBJECT A","OBJECT_ID":"2025-292A","EPOCH":"2026-03-09T21:45:44.016480","MEAN_MOTION":15.05451809,"ECCENTRICITY":0.00146319,"INCLINATION":97.6364,"RA_OF_ASC_NODE":145.598,"ARG_OF_PERICENTER":341.1551,"MEAN_ANOMALY":18.9132,"EPHEMERIS_TYPE":0,"CLASSIFICATION_TYPE":"U","NORAD_CAT_ID":66993,"ELEMENT_SET_NO":999,"REV_AT_EPOCH":1350,"BSTAR":0.00038878249,"MEAN_MOTION_DOT":5.535e-5,"MEAN_MOTION_DDOT":0}]
